#aV2021  5 10  0  0  0.00000000     288 DD+AD WGS84 FIT  NGA
## 2157  86400.00000000   300.00000000 59344 0.0000000000000
+   31     1  2  3  4  5  6  7  8  9 10 12 13 14 15 16 17 18
+         19 20 21 22 23 24 25 26 27 28 29 30 31 32  0  0  0
+          0  0  0  0  0  0  0  0  0  0  0  0  0  0  0  0  0
+          0  0  0  0  0  0  0  0  0  0  0  0  0  0  0  0  0
+          0  0  0  0  0  0  0  0  0  0  0  0  0  0  0  0  0
++         2  2  2  2  2  2  2  2  2  2  2  2  2  2  2  2  2
++         2  2  2  2  2  2  2  2  2  2  2  2  2  2  0  0  0
++         0  0  0  0  0  0  0  0  0  0  0  0  0  0  0  0  0
++         0  0  0  0  0  0  0  0  0  0  0  0  0  0  0  0  0
++         0  0  0  0  0  0  0  0  0  0  0  0  0  0  0  0  0
%c cc cc ccc ccc cccc cccc cccc cccc ccccc ccccc ccccc ccccc
%c cc cc ccc ccc cccc cccc cccc cccc ccccc ccccc ccccc ccccc
%f  0.0000000  0.000000000  0.00000000000  0.000000000000000
%f  0.0000000  0.000000000  0.00000000000  0.000000000000000
%i    0    0    0    0      0      0      0      0         0
%i    0    0    0    0      0      0      0      0         0
/*      NGA, ST. LOUIS,MO.                                  
/*   EPHEMERIS COMPUTED FROM 2 DAYS OF DATA                 
/*   EPOCHA v6 SMOOTHER                                     
/*   G2139 IERS2010 SATIGS SATAPC                           
*  2021  5 10  9 15  0.00000000
P  1 -22336.242438 -14275.798811   3328.408474    693.272456                    
V  1  -2497.003088  -4136.582602 -31677.887477     -0.108316                    
P  2   7381.432289  19148.527502  17486.951635   -602.985225                    
V  2 -18484.205294 -10000.850266  19540.490942     -0.031987                    
P  3 -13005.159109 -10461.823012  20603.373114   -159.968542                    
V  3   3923.605800 -26016.602133 -10580.741783     -0.104012                    
P  4 -20833.796778  -3938.616061  16041.825130   -195.664952                    
V  4  18265.193445  -9128.747679  21433.770847     -0.015723                    
P  5   6029.185051  23286.826455 -11211.316675    -41.508228                    
V  5  -3792.738114  13815.360330  27204.434554     -0.010990                    
P  6  -4845.642143  14475.752258  21787.547150     14.379216                    
V  6 -22201.925525 -16169.580754   5879.367550      0.035981                    
P  7 -21800.776776  -3356.181274 -14796.517033    146.718087                    
V  7 -14072.418582 -13257.457189  22707.030301      0.107972                    
P  8 -13348.974433  -9763.676198 -20855.509491    -20.679240                    
V  8  23791.151874 -11398.897969  -9597.059841     -0.014621                    
P  9 -24959.024731   5698.534092   7065.695513   -344.562005                    
V  9   7074.504282  -6344.932970  29834.663407     -0.023883                    
P 10  11654.454932 -19383.321792 -13589.075081   -119.012337                    
V 10    184.177664  17679.814869 -25105.599288     -0.076576                    
P 12  11039.532832  13635.933174  19731.597965    -39.107376                    
V 12  -5817.143523  24881.719033 -13624.988539     -0.051521                    
P 13   3713.061002  14661.247041 -21964.107489    130.224261                    
V 13 -26553.499403   7347.422901    548.135216      0.047410                    
P 14 -12942.598874  18596.435613 -13849.696385     87.700986                    
V 14    607.079298 -17723.730153 -24410.628461     -0.047739                    
P 15  14960.839159   9044.691255 -20438.290373   -150.405152                    
V 15 -21379.955484  13365.678968  -9557.291307      0.026164                    
P 16   -371.892393 -25096.881284  -8182.301317   -322.867486                    
V 16   4601.083896  -9418.688632  30011.441245     -0.060130                    
P 17 -21068.310767  13818.057002   8828.304320    440.054408                    
V 17 -10601.177870   1810.469344 -29565.116388      0.061267                    
P 18  19684.985306   -200.993741 -17870.296359    350.711757                    
V 18  16921.509494  15092.715943  18416.886944     -0.007940                    
P 19 -14959.301834  15352.947075  15321.641059     -1.896319                    
V 19 -19598.685373   4240.440803 -23066.731877      0.050001                    
P 20  13651.847896  13997.221552 -18094.751776    522.336471                    
V 20  -1134.357598  22979.206186  16650.515013     -0.003794                    
P 21 -20867.622245 -16300.397196  -3536.954162    117.098902                    
V 21   5853.147964    698.537339 -30952.070511      0.026803                    
P 22 -10688.115792 -19400.175909  14984.639755   -617.898697                    
V 22   2802.204270 -18639.548195 -22232.126141      0.093438                    
P 23  14898.518745  -8680.732821 -20208.482520    107.867019                    
V 23  -1320.357761  25608.736764 -12031.024296     -0.030026                    
P 24  21515.904429  15816.995336  -2221.103943     68.534517                    
V 24  -3862.084368   1365.197139 -30765.774524      0.242232                    
P 25  15186.238388   -566.379443  21501.447010    134.465206                    
V 25  -2866.040984  27810.051834   2986.876745      0.071149                    
P 26   3547.953007 -26075.930760   2185.845498     83.397333                    
V 26   3409.961807   3139.172543  31345.532248      0.049903                    
P 27  -1175.105503 -15464.307592 -21688.025149   -127.535820                    
V 27  25173.587390 -10146.730969   6278.543395     -0.065826                    
P 28 -10889.264516  22527.770686  -8662.828528    573.659891                    
V 28    305.163685 -11893.137054 -29276.490868     -0.060635                    
P 29  25322.196549  -3698.768793   7150.232925   -344.560412                    
V 29  -7982.315071   4805.704181  30497.770792     -0.065367                    
P 30 -13483.755166   9009.542985 -21006.685162   -424.138159                    
V 30 -20742.699413 -17080.293417   5738.149642     -0.050109                    
P 31   2734.483284 -16330.302825  20585.064951   -116.449905                    
V 31  21477.836035  15480.946985   9843.834845     -0.021794                    
P 32  18759.777731 -15866.808046   9976.163268     21.452565                    
V 32  12607.999872  -2539.567634 -28229.028054     -0.005814                    
EOF
